{"type": "FeatureCollection", "features": [ {"type": "Feature", "properties": {"norad_id": 36262, "name": "FENGYUN 1C DEB", "group": "fengyun-1c-debris", "lat": 80.87721887986721, "lon": 123.22769412091424, "alt_km": 833.497562092206, "timestamp": "2025-12-09T11:33:55.088134+00:00", "meta": {"OBJECT_NAME": "FENGYUN 1C DEB", "OBJECT_ID": "1999-025DWP", "EPOCH": "2025-12-08T09:54:26.531712", "MEAN_MOTION": 14.27796215, "ECCENTRICITY": 0.00599528, "INCLINATION": 98.9618, "RA_OF_ASC_NODE": 222.8075, "ARG_OF_PERICENTER": 288.1373, "MEAN_ANOMALY": 71.3285, "EPHEMERIS_TYPE": 0, "CLASSIFICATION_TYPE": "U", "NORAD_CAT_ID": 36262, "ELEMENT_SET_NO": 999, "REV_AT_EPOCH": 89435, "BSTAR": 0.0005578287, "MEAN_MOTION_DOT": 1.358e-05, "MEAN_MOTION_DDOT": 0}, "tle": {"line1": "1 36262U 99025DWP 25342.41280708  .00001358  00000+0  55783-3 0  9997", "line2": "2 36262  98.9618 222.8075 0059952 288.1373  71.3285 14.27796215894359"}}, "geometry": {"type": "Point", "coordinates": [123.22769412091424, 80.87721887986721]}}, {"type": "Feature", "properties": {"norad_id": 36263, "name": "FENGYUN 1C DEB", "group": "fengyun-1c-debris", "lat": 53.03723180922898, "lon": -147.8226957335021, "alt_km": 754.8668866074177, "timestamp": "2025-12-09T11:33:55.088144+00:00", "meta": {"OBJECT_NAME": "FENGYUN 1C DEB", "OBJECT_ID": "1999-025DWQ", "EPOCH": "2025-12-05T22:35:35.438496", "MEAN_MOTION": 14.45500291, "ECCENTRICITY": 0.00368573, "INCLINATION": 98.9995, "RA_OF_ASC_NODE": 220.5826, "ARG_OF_PERICENTER": 285.5558, "MEAN_ANOMALY": 74.1564, "EPHEMERIS_TYPE": 0, "CLASSIFICATION_TYPE": "U", "NORAD_CAT_ID": 36263, "ELEMENT_SET_NO": 999, "REV_AT_EPOCH": 87887, "BSTAR": 0.0032840515, "MEAN_MOTION_DOT": 0.00011644, "MEAN_MOTION_DDOT": 0}, "tle": {"line1": "1 36263U 99025DWQ 25339.94138239  .00011644  00000+0  32841-2 0  9991", "line2": "2 36263  98.9995 220.5826 0036857 285.5558  74.1564 14.45500291878879"}}, "geometry": {"type": "Point", "coordinates": [-147.8226957335021, 53.03723180922898]}}, {"type": "Feature", "properties": {"norad_id": 36267, "name": "FENGYUN 1C DEB", "group": "fengyun-1c-debris", "lat": -18.054856608142774, "lon": -66.15228945383208, "alt_km": 914.8479478120516, "timestamp": "2025-12-09T11:33:55.088154+00:00", "meta": {"OBJECT_NAME": "FENGYUN 1C DEB", "OBJECT_ID": "1999-025DWU", "EPOCH": "2025-12-06T02:08:43.155168", "MEAN_MOTION": 14.09059757, "ECCENTRICITY": 0.01266796, "INCLINATION": 98.5595, "RA_OF_ASC_NODE": 287.81, "ARG_OF_PERICENTER": 229.7401, "MEAN_ANOMALY": 191.5113, "EPHEMERIS_TYPE": 0, "CLASSIFICATION_TYPE": "U", "NORAD_CAT_ID": 36267, "ELEMENT_SET_NO": 999, "REV_AT_EPOCH": 86436, "BSTAR": 0.0020214884, "MEAN_MOTION_DOT": 3.734e-05, "MEAN_MOTION_DDOT": 0}, "tle": {"line1": "1 36267U 99025DWU 25340.08938837  .00003734  00000+0  20215-2 0  9997", "line2": "2 36267  98.5595 287.8100 0126679 229.7401 191.5113 14.09059757864364"}}, "geometry": {"type": "Point", "coordinates": [-66.15228945383208, -18.054856608142774]}}, {"type": "Feature", "properties": {"norad_id": 36269, "name": "FENGYUN 1C DEB", "group": "fengyun-1c-debris", "lat": -59.580307456782855, "lon": 89.44941113176745, "alt_km": 695.591757439367, "timestamp": "2025-12-09T11:33:55.088164+00:00", "meta": {"OBJECT_NAME": "FENGYUN 1C DEB", "OBJECT_ID": "1999-025DWW", "EPOCH": "2025-12-06T01:38:46.265856", "MEAN_MOTION": 14.2698404, "ECCENTRICITY": 0.02334469, "INCLINATION": 99.1075, "RA_OF_ASC_NODE": 281.7488, "ARG_OF_PERICENTER": 299.1205, "MEAN_ANOMALY": 58.6785, "EPHEMERIS_TYPE": 0, "CLASSIFICATION_TYPE": "U", "NORAD_CAT_ID": 36269, "ELEMENT_SET_NO": 999, "REV_AT_EPOCH": 87621, "BSTAR": 0.0015827025, "MEAN_MOTION_DOT": 5.087e-05, "MEAN_MOTION_DDOT": 0}, "tle": {"line1": "1 36269U 99025DWW 25340.06859104  .00005087  00000+0  15827-2 0  9992", "line2": "2 36269  99.1075 281.7488 0233446 299.1205  58.6785 14.26984040876218"}}, "geometry": {"type": "Point", "coordinates": [89.44941113176745, -59.580307456782855]}}, {"type": "Feature", "properties": {"norad_id": 36272, "name": "FENGYUN 1C DEB", "group": "fengyun-1c-debris", "lat": 78.6354465691864, "lon": 166.47018767378353, "alt_km": 944.91830307291, "timestamp": "2025-12-09T11:33:55.088174+00:00", "meta": {"OBJECT_NAME": "FENGYUN 1C DEB", "OBJECT_ID": "1999-025DWZ", "EPOCH": "2025-12-03T09:27:01.103328", "MEAN_MOTION": 14.17212531, "ECCENTRICITY": 0.01683371, "INCLINATION": 99.1372, "RA_OF_ASC_NODE": 213.4136, "ARG_OF_PERICENTER": 294.7142, "MEAN_ANOMALY": 63.659, "EPHEMERIS_TYPE": 0, "CLASSIFICATION_TYPE": "U", "NORAD_CAT_ID": 36272, "ELEMENT_SET_NO": 999, "REV_AT_EPOCH": 63484, "BSTAR": 0.00071361155, "MEAN_MOTION_DOT": 1.606e-05, "MEAN_MOTION_DDOT": 0}, "tle": {"line1": "1 36272U 99025DWZ 25337.39376277  .00001606  00000+0  71361-3 0  9992", "line2": "2 36272  99.1372 213.4136 0168337 294.7142  63.6590 14.17212531634841"}}, "geometry": {"type": "Point", "coordinates": [166.47018767378353, 78.6354465691864]}}, {"type": "Feature", "properties": {"norad_id": 36273, "name": "FENGYUN 1C DEB", "group": "fengyun-1c-debris", "lat": 72.89447218826042, "lon": 179.29143831272194, "alt_km": 814.8353075401237, "timestamp": "2025-12-09T11:33:55.088184+00:00", "meta": {"OBJECT_NAME": "FENGYUN 1C DEB", "OBJECT_ID": "1999-025DXA", "EPOCH": "2025-12-03T21:17:46.785120", "MEAN_MOTION": 14.16550178, "ECCENTRICITY": 0.009769, "INCLINATION": 99.6049, "RA_OF_ASC_NODE": 206.6416, "ARG_OF_PERICENTER": 13.2177, "MEAN_ANOMALY": 347.152, "EPHEMERIS_TYPE": 0, "CLASSIFICATION_TYPE": "U", "NORAD_CAT_ID": 36273, "ELEMENT_SET_NO": 999, "REV_AT_EPOCH": 66108, "BSTAR": 0.00050173, "MEAN_MOTION_DOT": 9.97e-06, "MEAN_MOTION_DDOT": 0}, "tle": {"line1": "1 36273U 99025DXA 25337.88734705  .00000997  00000+0  50173-3 0  9991", "line2": "2 36273  99.6049 206.6416 0097690  13.2177 347.1520 14.16550178661088"}}, "geometry": {"type": "Point", "coordinates": [179.29143831272194, 72.89447218826042]}}, {"type": "Feature", "properties": {"norad_id": 36274, "name": "FENGYUN 1C DEB", "group": "fengyun-1c-debris", "lat": 8.874726793495922, "lon": 56.07608208424774, "alt_km": 843.913994434306, "timestamp": "2025-12-09T11:33:55.088194+00:00", "meta": {"OBJECT_NAME": "FENGYUN 1C DEB", "OBJECT_ID": "1999-025DXB", "EPOCH": "2025-12-06T23:38:05.684928", "MEAN_MOTION": 14.23354105, "ECCENTRICITY": 0.00619764, "INCLINATION": 99.1397, "RA_OF_ASC_NODE": 54.9244, "ARG_OF_PERICENTER": 246.4059, "MEAN_ANOMALY": 293.7298, "EPHEMERIS_TYPE": 0, "CLASSIFICATION_TYPE": "U", "NORAD_CAT_ID": 36274, "ELEMENT_SET_NO": 999, "REV_AT_EPOCH": 62903, "BSTAR": 0.004546576, "MEAN_MOTION_DOT": 0.00010482, "MEAN_MOTION_DDOT": 0}, "tle": {"line1": "1 36274U 99025DXB 25340.98478802  .00010482  00000+0  45466-2 0  9998", "line2": "2 36274  99.1397  54.9244 0061976 246.4059 293.7298 14.23354105629037"}}, "geometry": {"type": "Point", "coordinates": [56.07608208424774, 8.874726793495922]}}, {"type": "Feature", "properties": {"norad_id": 36278, "name": "FENGYUN 1C DEB", "group": "fengyun-1c-debris", "lat": -50.95219073746876, "lon": -86.88622803310219, "alt_km": 797.3075708659444, "timestamp": "2025-12-09T11:33:55.088204+00:00", "meta": {"OBJECT_NAME": "FENGYUN 1C DEB", "OBJECT_ID": "1999-025DXF", "EPOCH": "2025-12-04T01:21:08.443872", "MEAN_MOTION": 14.17353569, "ECCENTRICITY": 0.00613363, "INCLINATION": 99.1236, "RA_OF_ASC_NODE": 256.1206, "ARG_OF_PERICENTER": 315.5831, "MEAN_ANOMALY": 44.0433, "EPHEMERIS_TYPE": 0, "CLASSIFICATION_TYPE": "U", "NORAD_CAT_ID": 36278, "ELEMENT_SET_NO": 999, "REV_AT_EPOCH": 93353, "BSTAR": 0.0008477729, "MEAN_MOTION_DOT": 1.7e-05, "MEAN_MOTION_DDOT": 0}, "tle": {"line1": "1 36278U 99025DXF 25338.05634773  .00001700  00000+0  84777-3 0  9990", "line2": "2 36278  99.1236 256.1206 0061336 315.5831  44.0433 14.17353569933530"}}, "geometry": {"type": "Point", "coordinates": [-86.88622803310219, -50.95219073746876]}}, {"type": "Feature", "properties": {"norad_id": 36279, "name": "FENGYUN 1C DEB", "group": "fengyun-1c-debris", "lat": 2.6575745726730133, "lon": -38.78031302172858, "alt_km": 823.9758450419604, "timestamp": "2025-12-09T11:33:55.088219+00:00", "meta": {"OBJECT_NAME": "FENGYUN 1C DEB", "OBJECT_ID": "1999-025DXG", "EPOCH": "2025-12-08T04:59:58.612992", "MEAN_MOTION": 14.147242, "ECCENTRICITY": 0.00630677, "INCLINATION": 98.5605, "RA_OF_ASC_NODE": 320.3989, "ARG_OF_PERICENTER": 68.1387, "MEAN_ANOMALY": 292.6479, "EPHEMERIS_TYPE": 0, "CLASSIFICATION_TYPE": "U", "NORAD_CAT_ID": 36279, "ELEMENT_SET_NO": 999, "REV_AT_EPOCH": 88975, "BSTAR": 0.00024838235, "MEAN_MOTION_DOT": 4.46e-06, "MEAN_MOTION_DDOT": 0}, "tle": {"line1": "1 36279U 99025DXG 25342.20831728  .00000446  00000+0  24838-3 0  9990", "line2": "2 36279  98.5605 320.3989 0063067  68.1387 292.6479 14.14724200889752"}}, "geometry": {"type": "Point", "coordinates": [-38.78031302172858, 2.6575745726730133]}}, {"type": "Feature", "properties": {"norad_id": 36280, "name": "FENGYUN 1C DEB", "group": "fengyun-1c-debris", "lat": 76.42227570634158, "lon": -127.7273314495509, "alt_km": 811.6824815805512, "timestamp": "2025-12-09T11:33:55.088230+00:00", "meta": {"OBJECT_NAME": "FENGYUN 1C DEB", "OBJECT_ID": "1999-025DXH", "EPOCH": "2025-12-08T20:36:31.756896", "MEAN_MOTION": 14.09721696, "ECCENTRICITY": 0.00633707, "INCLINATION": 98.7669, "RA_OF_ASC_NODE": 11.9526, "ARG_OF_PERICENTER": 76.4242, "MEAN_ANOMALY": 102.7342, "EPHEMERIS_TYPE": 0, "CLASSIFICATION_TYPE": "U", "NORAD_CAT_ID": 36280, "ELEMENT_SET_NO": 999, "REV_AT_EPOCH": 86299, "BSTAR": 0.0014880766, "MEAN_MOTION_DOT": 2.619e-05, "MEAN_MOTION_DDOT": 0}, "tle": {"line1": "1 36280U 99025DXH 25342.85870089  .00002619  00000+0  14881-2 0  9996", "line2": "2 36280  98.7669  11.9526 0063370  76.4242 102.7342 14.09721696862992"}}, "geometry": {"type": "Point", "coordinates": [-127.7273314495509, 76.42227570634158]}}]}